#dP2023  3 28  0  0  0.00000000      96 __u+U ITR00 EXT  IAC
## 2255 172800.00000000   900.00000000 60031 0.0000000000000
+  120   C06C07C08C09C10C11C12C13C14C16C19C20C21C22C23C24C25
+        C26C27C28C29C30C32C33C34C35C36C37C38C39C40C41C42C43
+        C44C45C46E01E02E03E04E05E07E08E09E10E11E12E13E14E15
+        E18E19E21E24E25E26E27E30E31E33E34E36G01G02G03G04G05
+        G06G07G08G09G10G11G12G13G14G15G16G17G18G19G20G21G22
+        G23G24G25G26G27G28G29G30G31G32J02J03J04R01R02R03R04
+        R05R07R08R09R11R12R13R14R15R16R17R18R19R20R21R22R24
+        R25  0  0  0  0  0  0  0  0  0  0  0  0  0  0  0  0
++         0  0  0  0  0  0  0  0  0  0  0  0  0  0  0  0  0
++         0  0  0  0  0  0  0  0  0  0  0  0  0  0  0  0  0
++         0  0  0  0  0  0  0  0  0  0  0  0  0  0  0  0  0
++         0  0  0  0  0  0  0  0  0  0  0  0  0  0  0  0  0
++         0  0  0  0  0  0  0  0  0  0  0  0  0  0  0  0  0
++         0  0  0  0  0  0  0  0  0  0  0  0  0  0  0  0  0
++         0  0  0  0  0  0  0  0  0  0  0  0  0  0  0  0  0
++         0  0  0  0  0  0  0  0  0  0  0  0  0  0  0  0  0
%c M  cc GPS ccc cccc cccc cccc cccc ccccc ccccc ccccc ccccc
%c cc cc ccc ccc cccc cccc cccc cccc ccccc ccccc ccccc ccccc
%f  0.0000000  0.000000000  0.00000000000  0.000000000000000
%f  0.0000000  0.000000000  0.00000000000  0.000000000000000
%i    0    0    0    0      0      0      0      0         0
%i    0    0    0    0      0      0      0      0         0
/* IAC                                ULTRA-RAPID PREDICTION
/* S/V CLOCKS ARE ALIGNED TO GNSS TIME                      
/* G:C1WC2W R:C1PC2P E:C1XC5X C:C2IC6I J:C1CC2S             
/* PCV:IGS20_2247 OL/AL:FES2004  NONE     YN ORB:CoN CLK:CoN
*  2023 03 28 20 30  0.00000000
PC06  -2586.951552  27741.819268  31747.897069   -197.050070
PC07 -18454.087688  30741.985844 -22274.870454    -88.062621
PC08  -9103.740455  40632.867509  -5995.119157    513.200309
PC09   6101.307059  32133.513361  27316.544184    830.125927
PC10 -10890.947179  30922.200181 -26477.475444    -19.894403
PC11   7020.478017 -13722.339759  23327.046717    731.477486
PC12  22083.496239   -290.437379  17092.376673    535.579741
PC13  -4430.708176  41793.067974    466.544285    240.097277
PC14  15791.320595 -19428.437450 -12239.895661     50.622646
PC16  -4892.115759  25971.403187  33139.436972    125.672604
PC19  -6708.380003  19283.786874  19065.988188   -897.830470
PC20 -21425.896420  17141.801910   5201.768707    655.716563
PC21  24321.840535  -4361.199838  12964.091518   -908.936006
PC22  12588.279534  10435.600372  22615.358739   -563.219861
PC23 -10248.643310 -22084.520937  13638.988573   -895.502186
PC24  12935.405358 -16571.450583 -18380.862424   -238.785768
PC25    535.302229 -27807.716849  -2421.314923     95.969345
PC26  16312.756492   2080.650734 -22559.911106    -98.396984
PC27 -25235.848154  -6150.362845 -10200.894488    117.359291
PC28 -21190.003919 -17029.864235   6300.548073     86.179325
PC29   4163.904988  18335.124000 -20630.881877     99.656193
PC30 -15723.310757   8655.852831 -21370.324934      0.667003
PC32 -24289.818899   4552.197548 -12956.859992   -589.942192
PC33   6660.932112 -19333.575164 -18969.636319   -871.467668
PC34  14665.084063  -9536.397769  21734.653998    136.664103
PC35  21208.173896  16686.636230  -7210.295532    656.213033
PC36  -1670.442785  27679.994860   3113.655176   -535.624314
PC37 -16173.016556  -4062.106210  22385.794016   -796.265212
PC38 -13348.897921  37405.647616 -13920.399936     68.039108
PC39 -10104.946333  22237.095283  34430.351225     -2.351988
PC40 -25156.186008  25104.205095 -22881.301825    -18.815600
PC41 -12074.098952 -10819.876707 -22655.921495   -780.441480
PC42  22099.471580 -16566.865556  -3837.657096   -764.138613
PC43  -3166.425122 -18215.044274  20883.665851     13.987630
PC44  25535.904243   5361.363872   9932.106697     58.614518
PC45  10392.446677  21751.003699 -14044.427359    -78.016133
PC46 -12137.591282  18043.237627  17461.655841    -43.086998
PE01  11613.561627  12746.758235 -24063.723953    -10.766034
PE02 -11916.009268 -12318.817841  24125.790491     29.056718
PE03 -23810.584138 -10192.076684 -14337.732837   -663.708010
PE04  29336.035585  -2165.587385  -3286.609103    -88.423571
PE05  -4106.823620 -16865.551663 -23968.190916    -82.079618
PE07 -17876.761357  13514.134873  19353.002240    -33.367003
PE08 -29370.105620   2073.104580   3109.420003    -58.481149
PE09  18010.684985 -13350.745499 -19312.981273   -885.229558
PE10  14110.809382  -7560.915897  24891.101933   -522.422916
PE11   6897.210659 -17594.060434  22766.783396   1412.550534
PE12  18605.406438   2709.638984  22866.923228   -476.526235
PE13  -7421.132052  16908.579263 -23134.586147    -18.089051
PE14   6185.572239  19010.080759 -21723.727175    181.377956
PE15 -18645.621045  -3046.951151 -22776.850795    -10.647920
PE18 -22498.107856 -12634.274927  11437.680147   -230.144373
PE19  21769.657620  11564.849437  16400.025446  -2898.473191
PE21  -2669.670068  25212.177429 -15280.482724   -520.161886
PE24  17116.506766 -23886.793961  -3683.626425  -1190.517974
PE25   2956.707643 -25340.332492  15014.516829   -602.216877
PE26   8495.383349  26837.300260  -9160.742995     58.924056
PE27 -16607.630714  24322.163922   2898.058748    -11.440917
PE30 -20600.885203   8404.740407  19499.154004    -47.951318
PE31  20621.751136  -9124.015448 -19178.073385   -519.796208
PE33  18780.262971  21059.189126   8976.421278   -447.832550
PE34 -18862.472615 -20908.077302  -9126.615758    -37.305531
PE36  -7989.858861 -26699.324927   9952.437972    -33.057181
PG01  16964.131999   5889.599750  19370.068703    198.341217
PG02 -16545.269665   -541.077504 -20095.774378   -610.854746
PG03  18423.660718  -5963.006994  17999.969642   -341.199621
PG04  26388.054383    -27.257251  -3506.155520      3.572140
PG05 -11419.354468 -10345.824864 -21793.436260   -121.251032
PG06  -3538.831875 -23804.520208  11189.590694    584.289437
PG07  12091.617293  -9565.419514 -21143.250767    213.510039
PG08  24358.857319   6889.655518  -8742.067344   -115.132760
PG09  21573.651760  -8479.990697 -13077.032542   -191.457789
PG10 -10104.990310  23543.406761   6535.830225    -30.468528
PG11 -12339.650516 -23388.622697  -2666.857056   -144.519706
PG12 -18278.757940   2571.025090  18780.520580   -357.129847
PG13 -18776.014554 -13252.421974 -13661.579744    497.470068
PG14  12855.328972 -22863.459017   3678.468145      8.768139
PG15 -24989.275704  -4459.637855  -8720.441757     25.646476
PG16   8299.961629  13527.474395 -21533.090509   -512.612391
PG17   9147.559987 -13519.600463  21403.311739    707.875050
PG18  -9248.167404  13515.552359 -20877.357981   -199.674281
PG19  -2157.851884 -15163.394059  21501.995601    296.196240
PG20  -5169.747651 -19413.314511 -17439.250584    442.214564
PG21  19428.018286  12917.425793  14012.287643    154.321015
PG22   5793.618052  15674.333108  21124.825504    453.919506
PG23 -16588.835329  19914.957107  -5428.221799     13.279286
PG24 -19277.903530  -8943.325426  15829.371395   -130.049004
PG25 -18963.230079  13384.879552  12347.057255    431.322759
PG26   -732.733389  22425.029567 -14062.974059    241.959397
PG27  16068.420320  12792.555143 -17311.073687     71.003378
PG28   2753.779657  23224.951719  12565.596339     54.129363
PG29 -24208.784689   3827.387126 -10386.122951   -593.015697
PG30   3299.251114 -20505.208561 -16301.785772   -524.954704
PG31   6566.270390  24597.431531   6558.682377   -212.688112
PG32  -5188.552639  14866.554701  21541.153074   -436.383756
PJ02 -33463.316219  25064.098608  10418.091410     -1.335676
PJ03 -23440.495163  18222.822272 -25345.723469      1.483301
PJ04 -27137.668118  32377.172899   7152.036590     94.147718
PR01  19784.856894 -12968.804514  -9515.768838     25.610740
PR02   3871.286801 -12383.356905 -21924.136448    -23.062411
PR03 -14048.512629  -5106.199088 -20601.476397     74.985206
PR04 -23737.928376   4824.900082  -7942.905805    181.157324
PR05 -20576.172108  12036.945477   9064.669927    110.054934
PR07  14806.719306   4678.498093  20297.563397     52.671070
PR08  23783.023909  -4959.024630   7885.072413    -70.114929
PR09  -1376.088905  25171.836791  -4139.404663    111.668399
PR11  11156.972370  -1206.626528 -22899.061801    -26.123808
PR12   9471.645096 -19696.902174 -13147.543894     26.002576
PR13   2558.710947 -25273.003916   2324.236584    -33.397769
PR14  -6808.400612 -15865.583935  18776.947673     24.482190
PR15 -11424.491838   2396.806558  22694.414015     90.157044
PR16  -9343.006879  19537.666237  13507.855471     12.894218
PR17 -19074.803332 -16867.307352   1787.957740    616.308865
PR18 -19498.736210  -8091.304625 -14260.807544     73.750987
PR19 -11135.533166   3541.607833 -22674.857861   -227.009410
PR20   6616.679974  16729.101202 -18100.695614    -90.125897
PR21  19514.112541  16413.522410    -32.208684   -383.810381
PR22  19168.617092   7934.137712  14880.920993     76.875121
PR24  -7421.587268 -16975.145880  17551.905011    157.464769
PR25  18143.003320  17807.917608  -2001.773605     59.016056
EOF
